GLOBALSTAR M001         
1 25162U 98008A   26006.28840781 -.00000050  00000+0  35698-3 0  9992
2 25162  52.0028 102.0727 0000734 350.1743  48.1607 12.38225310268875
GLOBALSTAR M004         
1 25163U 98008B   26006.18070947 -.00000098  00000+0  36196-4 0  9998
2 25163  51.9986 154.8593 0003493  38.7538 132.3366 12.63412037287342
GLOBALSTAR M002         
1 25164U 98008C   26006.26028429 -.00000072  00000+0  90304-4 0  9999
2 25164  52.0019  91.0293 0002159 147.8587 212.2365 11.61514471207661
GLOBALSTAR M003         
1 25165U 98008D   26006.34069478 -.00000193  00000+0 -11096-2 0  9992
2 25165  51.9918 325.8430 0008287 344.6565 182.1600 12.12037418257851
GLOBALSTAR M014         
1 25306U 98023A   26006.28678581 -.00000071  00000+0  12326-3 0  9992
2 25306  51.9875   9.9165 0000982  16.1329 357.2372 11.65483865214850
GLOBALSTAR M006         
1 25307U 98023B   26006.19824861 -.00000097  00000+0 -43104-3 0  9994
2 25307  51.9954  70.2010 0003615 120.8683 271.8860 11.58177569240351
GLOBALSTAR M015         
1 25308U 98023C   26006.23376465 -.00000092  00000+0 -41198-3 0  9998
2 25308  51.9795 177.8914 0013745  79.1460  91.6546 11.48863409217410
GLOBALSTAR M008         
1 25309U 98023D   26006.30483461 -.00000062  00000+0  27169-3 0  9990
2 25309  51.9994 329.1595 0002270 246.0034 280.7311 12.36078025262963
